CSS (TIANHE)            
1 48274U 21035A   23241.71405451  .00026631  00000+0  30497-3 0  9998
2 48274  41.4733  68.8548 0010809 261.7260  98.2353 15.61441789133328
